$$SOE
2460154.500000000, A.D. 2023-Jul-29 00:00:00.0000, 6.055030511544415E+09, 2.974927555579528E+08, -1.788431774439651E+09,
2460161.500000000, A.D. 2023-Aug-05 00:00:00.0000, 6.055860669296506E+09, 3.005011487488012E+08, -1.789418039404147E+09,
2460168.500000000, A.D. 2023-Aug-12 00:00:00.0000, 6.056689574743878E+09, 3.035094565562494E+08, -1.790403957151033E+09,
2460175.500000000, A.D. 2023-Aug-19 00:00:00.0000, 6.057517226408561E+09, 3.065176759834388E+08, -1.791389527570974E+09,
2460182.500000000, A.D. 2023-Aug-26 00:00:00.0000, 6.058343623118176E+09, 3.095258036355122E+08, -1.792374750578925E+09,
2460189.500000000, A.D. 2023-Sep-02 00:00:00.0000, 6.059168763983689E+09, 3.125338357382940E+08, -1.793359626112715E+09,
2460196.500000000, A.D. 2023-Sep-09 00:00:00.0000, 6.059992648390779E+09, 3.155417680444382E+08, -1.794344154142985E+09,
2460203.500000000, A.D. 2023-Sep-16 00:00:00.0000, 6.060815276173258E+09, 3.185495955690409E+08, -1.795328334714621E+09,
2460210.500000000, A.D. 2023-Sep-23 00:00:00.0000, 6.061636648384956E+09, 3.215573124414911E+08, -1.796312168034372E+09,
2460217.500000000, A.D. 2023-Sep-30 00:00:00.0000, 6.062456768330492E+09, 3.245649130642935E+08, -1.797295654476088E+09,
2460224.500000000, A.D. 2023-Oct-07 00:00:00.0000, 6.063275640501212E+09, 3.275723940360227E+08, -1.798278794331934E+09,
2460231.500000000, A.D. 2023-Oct-14 00:00:00.0000, 6.064093268456161E+09, 3.305797535252556E+08, -1.799261587675544E+09,
2460238.500000000, A.D. 2023-Oct-21 00:00:00.0000, 6.064909654876735E+09, 3.335869896981912E+08, -1.800244034502095E+09,
2460245.500000000, A.D. 2023-Oct-28 00:00:00.0000, 6.065724802370614E+09, 3.365941004600856E+08, -1.801226134829709E+09,
2460252.500000000, A.D. 2023-Nov-04 00:00:00.0000, 6.066538713774979E+09, 3.396010837401109E+08, -1.802207888710248E+09,
2460259.500000000, A.D. 2023-Nov-11 00:00:00.0000, 6.067351392136550E+09, 3.426079377197579E+08, -1.803189296214533E+09,
2460266.500000000, A.D. 2023-Nov-18 00:00:00.0000, 6.068162840587969E+09, 3.456146609404781E+08, -1.804170357417136E+09,
2460273.500000000, A.D. 2023-Nov-25 00:00:00.0000, 6.068973062193338E+09, 3.486212523131242E+08, -1.805151072385346E+09,
2460280.500000000, A.D. 2023-Dec-02 00:00:00.0000, 6.069782059791099E+09, 3.516277110179948E+08, -1.806131441175636E+09,
2460287.500000000, A.D. 2023-Dec-09 00:00:00.0000, 6.070589835912086E+09, 3.546340362365659E+08, -1.807111463849465E+09,
2460294.500000000, A.D. 2023-Dec-16 00:00:00.0000, 6.071396393060310E+09, 3.576402267274808E+08, -1.808091140533737E+09,
2460301.500000000, A.D. 2023-Dec-23 00:00:00.0000, 6.072201734704882E+09, 3.606462809342414E+08, -1.809070471501730E+09,
2460308.500000000, A.D. 2023-Dec-30 00:00:00.0000, 6.073005865642920E+09, 3.636521986738524E+08, -1.810049457065930E+09,
2460315.500000000, A.D. 2024-Jan-06 00:00:00.0000, 6.073808789960932E+09, 3.666579820457112E+08, -1.811028097313302E+09,
2460322.500000000, A.D. 2024-Jan-13 00:00:00.0000, 6.074610509767447E+09, 3.696636337538246E+08, -1.812006392121900E+09,
2460329.500000000, A.D. 2024-Jan-20 00:00:00.0000, 6.075411025920456E+09, 3.726691559269438E+08, -1.812984341319197E+09,
2460336.500000000, A.D. 2024-Jan-27 00:00:00.0000, 6.076210338720895E+09, 3.756745500888131E+08, -1.813961944743035E+09,
2460343.500000000, A.D. 2024-Feb-03 00:00:00.0000, 6.077008448143844E+09, 3.786798173299097E+08, -1.814939202243627E+09,
2460350.500000000, A.D. 2024-Feb-10 00:00:00.0000, 6.077805353884751E+09, 3.816849583895620E+08, -1.815916113676085E+09,
2460357.500000000, A.D. 2024-Feb-17 00:00:00.0000, 6.078601055359439E+09, 3.846899736563699E+08, -1.816892678895713E+09,
2460364.500000000, A.D. 2024-Feb-24 00:00:00.0000, 6.079395551693774E+09, 3.876948631017153E+08, -1.817868897758290E+09,
2460371.500000000, A.D. 2024-Mar-02 00:00:00.0000, 6.080188841732397E+09, 3.906996261138490E+08, -1.818844770130823E+09,
2460378.500000000, A.D. 2024-Mar-09 00:00:00.0000, 6.080980924205285E+09, 3.937042611696886E+08, -1.819820295930692E+09,
2460385.500000000, A.D. 2024-Mar-16 00:00:00.0000, 6.081771798447474E+09, 3.967087655416011E+08, -1.820795475213405E+09,
2460392.500000000, A.D. 2024-Mar-23 00:00:00.0000, 6.082561465568358E+09, 3.997131361482079E+08, -1.821770308208841E+09,
2460399.500000000, A.D. 2024-Mar-30 00:00:00.0000, 6.083349927829403E+09, 4.027173715224235E+08, -1.822744795102649E+09,
2460406.500000000, A.D. 2024-Apr-06 00:00:00.0000, 6.084137186486342E+09, 4.057214715291123E+08, -1.823718935861492E+09,
2460413.500000000, A.D. 2024-Apr-13 00:00:00.0000, 6.084923241646956E+09, 4.087254356687906E+08, -1.824692730359492E+09,
2460420.500000000, A.D. 2024-Apr-20 00:00:00.0000, 6.085708093192299E+09, 4.117292626440290E+08, -1.825666178499802E+09,
2460427.500000000, A.D. 2024-Apr-27 00:00:00.0000, 6.086491741244345E+09, 4.147329506271719E+08, -1.826639280237991E+09,
2460434.500000000, A.D. 2024-May-04 00:00:00.0000, 6.087274186268005E+09, 4.177364975260741E+08, -1.827612035572724E+09,
2460441.500000000, A.D. 2024-May-11 00:00:00.0000, 6.088055429045795E+09, 4.207399011462345E+08, -1.828584444533829E+09,
2460448.500000000, A.D. 2024-May-18 00:00:00.0000, 6.088835470607195E+09, 4.237431592712185E+08, -1.829556507173342E+09,
2460455.500000000, A.D. 2024-May-25 00:00:00.0000, 6.089614312137384E+09, 4.267462696545585E+08, -1.830528223562225E+09,
2460462.500000000, A.D. 2024-Jun-01 00:00:00.0000, 6.090391954925226E+09, 4.297492298660411E+08, -1.831499593802706E+09,
2460469.500000000, A.D. 2024-Jun-08 00:00:00.0000, 6.091168400596828E+09, 4.327520369697307E+08, -1.832470618080470E+09,
2460476.500000000, A.D. 2024-Jun-15 00:00:00.0000, 6.091943652034252E+09, 4.357546875790918E+08, -1.833441296748540E+09,
2460483.500000000, A.D. 2024-Jun-22 00:00:00.0000, 6.092717713974092E+09, 4.387571794645920E+08, -1.834411630254339E+09,
2460490.500000000, A.D. 2024-Jun-29 00:00:00.0000, 6.093490591164332E+09, 4.417595128931746E+08, -1.835381618863876E+09,
2460497.500000000, A.D. 2024-Jul-06 00:00:00.0000, 6.094262286724495E+09, 4.447616892286265E+08, -1.836351262627378E+09,
2460504.500000000, A.D. 2024-Jul-13 00:00:00.0000, 6.095032802658292E+09, 4.477637096170408E+08, -1.837320561534227E+09,
2460511.500000000, A.D. 2024-Jul-20 00:00:00.0000, 6.095802140533156E+09, 4.507655749061186E+08, -1.838289515581085E+09,
2460518.500000000, A.D. 2024-Jul-27 00:00:00.0000, 6.096570301670642E+09, 4.537672858388937E+08, -1.839258124771454E+09,
2460525.500000000, A.D. 2024-Aug-03 00:00:00.0000, 6.097337287120647E+09, 4.567688431470240E+08, -1.840226389102403E+09,
2460532.500000000, A.D. 2024-Aug-10 00:00:00.0000, 6.098103097585199E+09, 4.597702475393952E+08, -1.841194308554188E+09,
2460539.500000000, A.D. 2024-Aug-17 00:00:00.0000, 6.098867733339159E+09, 4.627714996080406E+08, -1.842161883085505E+09,
2460546.500000000, A.D. 2024-Aug-24 00:00:00.0000, 6.099631194175674E+09, 4.657725996294916E+08, -1.843129112639007E+09,
2460553.500000000, A.D. 2024-Aug-31 00:00:00.0000, 6.100393479491991E+09, 4.687735472004384E+08, -1.844095997172949E+09,
2460560.500000000, A.D. 2024-Sep-07 00:00:00.0000, 6.101154588881143E+09, 4.717743408344321E+08, -1.845062536742445E+09,
2460567.500000000, A.D. 2024-Sep-14 00:00:00.0000, 6.101914523314751E+09, 4.747749785157990E+08, -1.846028731556997E+09,
2460574.500000000, A.D. 2024-Sep-21 00:00:00.0000, 6.102673284888094E+09, 4.777754596235868E+08, -1.846994581794721E+09,
2460581.500000000, A.D. 2024-Sep-28 00:00:00.0000, 6.103430874639985E+09, 4.807757849980674E+08, -1.847960087392496E+09,
2460588.500000000, A.D. 2024-Oct-05 00:00:00.0000, 6.104187292117130E+09, 4.837759551516014E+08, -1.848925248148648E+09,
2460595.500000000, A.D. 2024-Oct-12 00:00:00.0000, 6.104942536322342E+09, 4.867759696041034E+08, -1.849890063861632E+09,
2460602.500000000, A.D. 2024-Oct-19 00:00:00.0000, 6.105696606295729E+09, 4.897758270724275E+08, -1.850854534366312E+09,
2460609.500000000, A.D. 2024-Oct-26 00:00:00.0000, 6.106449501296461E+09, 4.927755257124716E+08, -1.851818659530372E+09,
2460616.500000000, A.D. 2024-Nov-02 00:00:00.0000, 6.107201220842598E+09, 4.957750632658532E+08, -1.852782439246584E+09,
2460623.500000000, A.D. 2024-Nov-09 00:00:00.0000, 6.107951764705684E+09, 4.987744371321321E+08, -1.853745873428080E+09,
2460630.500000000, A.D. 2024-Nov-16 00:00:00.0000, 6.108701132886183E+09, 5.017736443671434E+08, -1.854708962008909E+09,
2460637.500000000, A.D. 2024-Nov-23 00:00:00.0000, 6.109449325616825E+09, 5.047726815578232E+08, -1.855671704958233E+09,
2460644.500000000, A.D. 2024-Nov-30 00:00:00.0000, 6.110196343602293E+09, 5.077715445311326E+08, -1.856634102330637E+09,
2460651.500000000, A.D. 2024-Dec-07 00:00:00.0000, 6.110942188914808E+09, 5.107702283179343E+08, -1.857596154356573E+09,
2460658.500000000, A.D. 2024-Dec-14 00:00:00.0000, 6.111686865857064E+09, 5.137687285959604E+08, -1.858557861409609E+09,
2460665.500000000, A.D. 2024-Dec-21 00:00:00.0000, 6.112430379474031E+09, 5.167670433712465E+08, -1.859519223739092E+09,
2460672.500000000, A.D. 2024-Dec-28 00:00:00.0000, 6.113172733686167E+09, 5.197651719307889E+08, -1.860480241391445E+09,
2460679.500000000, A.D. 2025-Jan-04 00:00:00.0000, 6.113913931641278E+09, 5.227631134426627E+08, -1.861440914363936E+09,
2460686.500000000, A.D. 2025-Jan-11 00:00:00.0000, 6.114653976463923E+09, 5.257608668634921E+08, -1.862401242687994E+09,
2460693.500000000, A.D. 2025-Jan-18 00:00:00.0000, 6.115392871485486E+09, 5.287584312344862E+08, -1.863361226432806E+09,
2460700.500000000, A.D. 2025-Jan-25 00:00:00.0000, 6.116130620198586E+09, 5.317558058915192E+08, -1.864320865690043E+09,
2460707.500000000, A.D. 2025-Feb-01 00:00:00.0000, 6.116867226125411E+09, 5.347529905591171E+08, -1.865280160559290E+09,
2460714.500000000, A.D. 2025-Feb-08 00:00:00.0000, 6.117602692658559E+09, 5.377499853480211E+08, -1.866239111137695E+09,
2460721.500000000, A.D. 2025-Feb-15 00:00:00.0000, 6.118337022903241E+09, 5.407467906363012E+08, -1.867197717517911E+09,
$$EOE